ONEWEB-0578             
1 56067U 23043X   26188.69205662 -.00000021  00000+0 -81992-4 0  9994
2 56067  87.9244 239.8928 0002248  89.0483 271.0909 13.21825460160949
ONEWEB-0579             
1 56068U 23043Y   26188.68362785  .00000029  00000+0  38133-4 0  9999
2 56068  87.9247 239.8916 0001997 102.8828 257.2529 13.21827799160959
ONEWEB-0581             
1 56069U 23043Z   26187.60548794 -.00000039  00000+0 -13498-3 0  9996
2 56069  87.9077 224.9279 0001621  83.8387 276.2928 13.16594788161510
ONEWEB-0609             
1 56070U 23043AA  26188.71685370  .00000133  00000+0  31831-3 0  9997
2 56070  87.8990 255.1211 0002140  97.3891 262.7483 13.15546765159136
ONEWEB-0613             
1 56071U 23043AB  26188.71448293  .00000122  00000+0  28947-3 0  9991
2 56071  87.8989 255.1339 0002132 105.2153 254.9213 13.15547857159134
ONEWEB-0630             
1 56072U 23043AC  26188.70973295  .00000104  00000+0  24311-3 0  9997
2 56072  87.8990 255.1085 0002124 108.5414 251.5947 13.15548733159122
ONEWEB-0632             
1 56073U 23043AD  26187.71623521  .00000121  00000+0  28681-3 0  9995
2 56073  87.8991 255.3229 0001877  96.8812 263.2532 13.15548032158997
ONEWEB-0633             
1 56074U 23043AE  26188.69864344  .00000124  00000+0  29506-3 0  9994
2 56074  87.8995 255.1044 0002309 107.7146 252.4237 13.15548390159101
ONEWEB-0634             
1 56075U 23043AF  26188.68438066 -.00000059  00000+0 -19131-3 0  9994
2 56075  87.8988 255.1458 0002328  94.5957 265.5439 13.15547757159090
ONEWEB-0635             
1 56076U 23043AG  26188.67962426 -.00000157  00000+0 -45194-3 0  9993
2 56076  87.8999 255.1109 0001823  95.2089 264.9249 13.15547989159122
ONEWEB-0636             
1 56077U 23043AH  26188.67169427 -.00000147  00000+0 -42336-3 0  9998
2 56077  87.8998 255.1181 0001890  95.3980 264.7366 13.15547389159107
ONEWEB-0637             
1 56078U 23043AJ  26188.74142034 -.00000109  00000+0 -32477-3 0  9995
2 56078  87.8990 255.1193 0002077  90.4230 269.7139 13.15547850159134
ONEWEB-0647             
1 56079U 23043AK  26188.73666938 -.00000046  00000+0 -15719-3 0  9999
2 56079  87.8992 255.1327 0001941 100.2929 259.8420 13.15548863159127
ONEWEB-0651             
1 56080U 23043AL  26188.80797404  .00000071  00000+0  15542-3 0  9992
2 56080  87.8990 255.1122 0001899  92.5837 267.5511 13.15547793160336
ONEWEB-0718             
1 56081U 23043AM  26188.72716433  .00000067  00000+0  14322-3 0  9997
2 56081  87.8992 255.1085 0002562  96.2869 263.8553 13.15549029159136
ONEWEB-0561             
1 56710U 23068A   26188.72774411  .00000124  00000+0  27314-3 0  9992
2 56710  87.9190 270.3505 0001679 101.3831 258.7491 13.20769446152216
ONEWEB-0668             
1 56711U 23068B   26188.03613654  .00000081  00000+0  17842-3 0  9995
2 56711  87.9083 224.8300 0002481  85.4713 274.6701 13.16594739154396
ONEWEB-0676             
1 56712U 23068C   26187.66407171 -.00000063  00000+0 -19741-3 0  9991
2 56712  87.9084 224.9103 0001787  89.3952 270.7384 13.16594232154264
ONEWEB-0677             
1 56713U 23068D   26188.79174373  .00000018  00000+0  12630-4 0  9991
2 56713  87.9192 270.3291 0002006  88.0762 272.0601 13.20771264152529
ONEWEB-0678             
1 56714U 23068E   26188.69547157  .00000059  00000+0  12326-3 0  9991
2 56714  87.8999 255.1091 0001944 106.5825 253.5519 13.15547279151981
ONEWEB-0679             
1 56715U 23068F   26187.62290127  .00000025  00000+0  31351-4 0  9999
2 56715  87.9080 224.9098 0002201  79.8193 280.3186 13.16593575154287
ONEWEB-0680             
1 56716U 23068G   26188.68531025 -.00000026  00000+0 -95249-4 0  9991
2 56716  87.9247 239.8935 0002420  84.5966 275.5443 13.21825413153806
ONEWEB-0681             
1 56717U 23068H   26188.66596913  .00001146  00000+0  27428-2 0  9991
2 56717  87.9241 239.8978 0001452  71.8680 288.2612 13.21820975153799
ONEWEB-0682             
1 56718U 23068J   26188.71924360  .00000119  00000+0  28179-3 0  9993
2 56718  87.8995 255.1049 0002355  87.3833 272.7567 13.15548154152155
ONEWEB-0683             
1 56719U 23068K   26188.74300584 -.00000049  00000+0 -16318-3 0  9999
2 56719  87.9000 255.1001 0002270  94.5378 265.6012 13.15548008152123
ONEWEB-0684             
1 56720U 23068L   26188.67487275 -.00000111  00000+0 -32993-3 0  9993
2 56720  87.8996 255.1033 0002690 126.9800 233.1577 13.15549373151940
ONEWEB-0686             
1 56721U 23068M   26187.58332192 -.00000011  00000+0 -61596-4 0  9991
2 56721  87.9073 224.9391 0002411  96.8854 263.2552 13.16593617154260
ONEWEB-0694             
1 56722U 23068N   26187.58965293 -.00000056  00000+0 -17941-3 0  9999
2 56722  87.9093 224.9064 0002418  86.3210 273.8198 13.16593194154327
ONEWEB-0696             
1 56723U 23068P   26188.70814845  .00000130  00000+0  31035-3 0  9992
2 56723  87.8984 255.1346 0001902 112.9155 247.2177 13.15549057152065
ONEWEB-0703             
1 56724U 23068Q   26188.71764859  .00000117  00000+0  27699-3 0  9999
2 56724  87.8992 255.1125 0001454 118.8771 241.2505 13.15547789151957
