OBJECT_NAME,OBJECT_ID,EPOCH,MEAN_MOTION,ECCENTRICITY,INCLINATION,RA_OF_ASC_NODE,ARG_OF_PERICENTER,MEAN_ANOMALY,EPHEMERIS_TYPE,CLASSIFICATION_TYPE,NORAD_CAT_ID,ELEMENT_SET_NO,REV_AT_EPOCH,BSTAR,MEAN_MOTION_DOT,MEAN_MOTION_DDOT
ONEWEB-0578,2023-043X,2026-07-07T16:36:33.691968,13.21825460,.0002248,87.9244,239.8928,89.0483,271.0909,0,U,56067,999,16094,-.81992E-4,-.21E-6,0
ONEWEB-0579,2023-043Y,2026-07-07T16:24:25.446240,13.21827799,.0001997,87.9247,239.8916,102.8828,257.2529,0,U,56068,999,16095,.38133E-4,.29E-6,0
ONEWEB-0581,2023-043Z,2026-07-06T14:31:54.158016,13.16594788,.00016216,87.9077,224.9279,83.8387,276.2928,0,U,56069,999,16151,-.13498143E-3,-.39E-6,0
ONEWEB-0609,2023-043AA,2026-07-07T17:12:16.159680,13.15546765,.000214,87.8990,255.1211,97.3891,262.7483,0,U,56070,999,15913,.31831E-3,.133E-5,0
ONEWEB-0613,2023-043AB,2026-07-07T17:08:51.325152,13.15547857,.0002132,87.8989,255.1339,105.2153,254.9213,0,U,56071,999,15913,.28947E-3,.122E-5,0
ONEWEB-0630,2023-043AC,2026-07-07T17:02:00.926880,13.15548733,.0002124,87.8990,255.1085,108.5414,251.5947,0,U,56072,999,15912,.24311E-3,.104E-5,0
ONEWEB-0632,2023-043AD,2026-07-06T17:11:22.722144,13.15548032,.00018771,87.8991,255.3229,96.8812,263.2532,0,U,56073,999,15899,.28680803E-3,.121E-5,0
ONEWEB-0633,2023-043AE,2026-07-07T16:46:02.793216,13.15548390,.0002309,87.8995,255.1044,107.7146,252.4237,0,U,56074,999,15910,.29506E-3,.124E-5,0
ONEWEB-0634,2023-043AF,2026-07-07T16:25:30.489024,13.15547757,.0002328,87.8988,255.1458,94.5957,265.5439,0,U,56075,999,15909,-.19131E-3,-.59E-6,0
ONEWEB-0635,2023-043AG,2026-07-07T16:18:39.536064,13.15547989,.0001823,87.8999,255.1109,95.2089,264.9249,0,U,56076,999,15912,-.45194E-3,-.157E-5,0
ONEWEB-0636,2023-043AH,2026-07-07T16:07:14.384928,13.15547389,.000189,87.8998,255.1181,95.3980,264.7366,0,U,56077,999,15910,-.42336E-3,-.147E-5,0
ONEWEB-0637,2023-043AJ,2026-07-07T17:47:38.717376,13.15547850,.0002077,87.8990,255.1193,90.4230,269.7139,0,U,56078,999,15913,-.32477E-3,-.109E-5,0
ONEWEB-0647,2023-043AK,2026-07-07T17:40:48.234432,13.15548863,.0001941,87.8992,255.1327,100.2929,259.8420,0,U,56079,999,15912,-.15719E-3,-.46E-6,0
ONEWEB-0651,2023-043AL,2026-07-07T19:23:28.957056,13.15547793,.0001899,87.8990,255.1122,92.5837,267.5511,0,U,56080,999,16033,.15542E-3,.71E-6,0
ONEWEB-0718,2023-043AM,2026-07-07T17:27:06.998112,13.15549029,.0002562,87.8992,255.1085,96.2869,263.8553,0,U,56081,999,15913,.14322E-3,.67E-6,0
ONEWEB-0561,2023-068A,2026-07-07T17:27:57.091104,13.20769446,.0001679,87.9190,270.3505,101.3831,258.7491,0,U,56710,999,15221,.27314E-3,.124E-5,0
ONEWEB-0668,2023-068B,2026-07-07T00:52:02.197056,13.16594739,.00024819,87.9083,224.8300,85.4713,274.6701,0,U,56711,999,15439,.17842004E-3,.81E-6,0
ONEWEB-0676,2023-068C,2026-07-06T15:56:15.795744,13.16594232,.00017877,87.9084,224.9103,89.3952,270.7384,0,U,56712,999,15426,-.19741168E-3,-.63E-6,0
ONEWEB-0677,2023-068D,2026-07-07T19:00:06.658272,13.20771264,.0002006,87.9192,270.3291,88.0762,272.0601,0,U,56713,999,15252,.1263E-4,.18E-6,0
ONEWEB-0678,2023-068E,2026-07-07T16:41:28.743648,13.15547279,.0001944,87.8999,255.1091,106.5825,253.5519,0,U,56714,999,15198,.12326E-3,.59E-6,0
ONEWEB-0679,2023-068F,2026-07-06T14:56:58.669728,13.16593575,.00022015,87.9080,224.9098,79.8193,280.3186,0,U,56715,999,15428,.31351418E-4,.25E-6,0
ONEWEB-0680,2023-068G,2026-07-07T16:26:50.805600,13.21825413,.000242,87.9247,239.8935,84.5966,275.5443,0,U,56716,999,15380,-.95249E-4,-.26E-6,0
ONEWEB-0681,2023-068H,2026-07-07T15:58:59.732832,13.21820975,.0001452,87.9241,239.8978,71.8680,288.2612,0,U,56717,999,15379,.27428E-2,.1146E-4,0
ONEWEB-0682,2023-068J,2026-07-07T17:15:42.647040,13.15548154,.0002355,87.8995,255.1049,87.3833,272.7567,0,U,56718,999,15215,.28179E-3,.119E-5,0
ONEWEB-0683,2023-068K,2026-07-07T17:49:55.704576,13.15548008,.000227,87.9000,255.1001,94.5378,265.6012,0,U,56719,999,15212,-.16318E-3,-.49E-6,0
ONEWEB-0684,2023-068L,2026-07-07T16:11:49.005600,13.15549373,.000269,87.8996,255.1033,126.9800,233.1577,0,U,56720,999,15194,-.32993E-3,-.111E-5,0
ONEWEB-0686,2023-068M,2026-07-06T13:59:59.013888,13.16593617,.00024119,87.9073,224.9391,96.8854,263.2552,0,U,56721,999,15426,-.61595654E-4,-.11E-6,0
ONEWEB-0694,2023-068N,2026-07-06T14:09:06.013152,13.16593194,.00024184,87.9093,224.9064,86.3210,273.8198,0,U,56722,999,15432,-.17940889E-3,-.56E-6,0
ONEWEB-0696,2023-068P,2026-07-07T16:59:44.026080,13.15549057,.0001902,87.8984,255.1346,112.9155,247.2177,0,U,56723,999,15206,.31035E-3,.13E-5,0
ONEWEB-0703,2023-068Q,2026-07-07T17:13:24.838176,13.15547789,.0001454,87.8992,255.1125,118.8771,241.2505,0,U,56724,999,15195,.27699E-3,.117E-5,0
